{"type": "FeatureCollection", "features": [{"type": "Feature", "geometry": {"type": "Point", "coordinates": [76.113, 61.03]}, "properties": {"name": "ОО КУЛЬТУРНО-ПРОСВЕТИТЕЛЬНЫЙ ЦЕНТР \"ИМАН\"", "full_name": "ОО КУЛЬТУРНО-ПРОСВЕТИТЕЛЬНЫЙ ЦЕНТР \"ИМАН\"", "ogrn": "1148607000299", "address": "УЛ. СОВЕТСКАЯ, Д.4, КВ.2", "settlement": "Г. МЕГИОН", "type": "Коммуникационная сфера", "registration_year": 1993, "liquidation_year": 2014, "status": "Ликвидирована"}}, {"type": "Feature", "geometry": {"type": "Point", "coordinates": [69.019, 61.003]}, "properties": {"name": "ТАТАРСКИЙ НАЦИОНАЛЬНЫЙ КУЛЬТУРНЫЙ ЦЕНТР \"ИМАН\"", "full_name": "ТАТАРСКИЙ НАЦИОНАЛЬНЫЙ КУЛЬТУРНЫЙ ЦЕНТР \"ИМАН\"", "ogrn": "1078600001831", "address": "УЛ. СВОБОДЫ, Д.55/1", "settlement": "Г. ХАНТЫ-МАНСИЙСК", "type": "Социальная сфера", "registration_year": 1995, "liquidation_year": 2007, "status": "Ликвидирована"}}, {"type": "Feature", "geometry": {"type": "Point", "coordinates": [69.02711, 60.99415]}, "properties": {"name": "МЕСТНАЯ МУСУЛЬМАНСКАЯ РЕЛИГИОЗНАЯ ОРГАНИЗАЦИЯ ГОРОДА ХАНТЫ-МАНСИЙСКА", "full_name": "МЕСТНАЯ МУСУЛЬМАНСКАЯ РЕЛИГИОЗНАЯ ОРГАНИЗАЦИЯ ГОРОДА ХАНТЫ-МАНСИЙСКА", "ogrn": "1028600002793", "address": "УЛ. ГАГАРИНА, СОБОРНАЯ МЕЧЕТЬ", "settlement": "Г. ХАНТЫ-МАНСИЙСК", "type": "Социальная сфера", "registration_year": 1998, "liquidation_year": null, "status": "Действующая"}}, {"type": "Feature", "geometry": {"type": "Point", "coordinates": [72.604, 61.097]}, "properties": {"name": "МЕСТНАЯ МУСУЛЬМАНСКАЯ РЕЛИГИОЗНАЯ ОРГАНИЗАЦИЯ ГОРОДА НЕФТЕЮГАНСК", "full_name": "МЕСТНАЯ МУСУЛЬМАНСКАЯ РЕЛИГИОЗНАЯ ОРГАНИЗАЦИЯ ГОРОДА НЕФТЕЮГАНСК", "ogrn": "1028600002397", "address": "МКР. 8-Й, Д.1, КВ.2", "settlement": "Г. НЕФТЕЮГАНСК", "type": "Социальная сфера", "registration_year": 1998, "liquidation_year": null, "status": "Действующая"}}, {"type": "Feature", "geometry": {"type": "Point", "coordinates": [72.19, 61.48]}, "properties": {"name": "МЕСТНАЯ МУСУЛЬМАНСКАЯ РЕЛИГИОЗНАЯ ОРГАНИЗАЦИЯ \"МАХАЛЛЯ\"", "full_name": "МЕСТНАЯ МУСУЛЬМАНСКАЯ РЕЛИГИОЗНАЯ ОРГАНИЗАЦИЯ \"МАХАЛЛЯ\"", "ogrn": "1038605501582", "address": "МКР КОРЖАВИНО", "settlement": "ПГТ. ПОЙКОВСКИЙ", "type": "Социальная сфера", "registration_year": 1998, "liquidation_year": 2015, "status": "Ликвидирована"}}, {"type": "Feature", "geometry": {"type": "Point", "coordinates": [63.336, 61.312]}, "properties": {"name": "МЕСТНАЯ МУСУЛЬМАНСКАЯ РЕЛИГИОЗНАЯ ОРГАНИЗАЦИЯ ГОРОДА ЮГОРСКА", "full_name": "МЕСТНАЯ МУСУЛЬМАНСКАЯ РЕЛИГИОЗНАЯ ОРГАНИЗАЦИЯ ГОРОДА ЮГОРСКА", "ogrn": "1038605500526", "address": "УЛ ПОПОВА, ЗД. 81", "settlement": "Г. ЮГОРСК", "type": "Социальная сфера", "registration_year": 1999, "liquidation_year": null, "status": "Действующая"}}, {"type": "Feature", "geometry": {"type": "Point", "coordinates": [73.378, 61.626]}, "properties": {"name": "ММРО МАХАЛЛЯ", "full_name": "МЕСТНАЯ МУСУЛЬМАНСКАЯ РЕЛИГИОЗНАЯ ОРГАНИЗАЦИЯ МАХАЛЛЯ", "ogrn": "1038605500713", "address": "УЛ. ЛЕНИНА, Д.3", "settlement": "П. ФЕДОРОВСКИЙ", "type": "Социальная сфера", "registration_year": 1999, "liquidation_year": 2009, "status": "Ликвидирована"}}, {"type": "Feature", "geometry": {"type": "Point", "coordinates": [72.853, 60.751]}, "properties": {"name": "МЕСТНАЯ МУСУЛЬМАНСКАЯ РЕЛИГИОЗНАЯ ОРГАНИЗАЦИЯ ГОРОДА ПЫТЬ-ЯХА", "full_name": "МЕСТНАЯ МУСУЛЬМАНСКАЯ РЕЛИГИОЗНАЯ ОРГАНИЗАЦИЯ ГОРОДА ПЫТЬ-ЯХА", "ogrn": "1038605500790", "address": "МКР 3-Й, Д.4, КВ.3", "settlement": "Г. ПЫТЬ-ЯХ", "type": "Социальная сфера", "registration_year": 1999, "liquidation_year": null, "status": "Действующая"}}, {"type": "Feature", "geometry": {"type": "Point", "coordinates": [69.00705, 61.00405]}, "properties": {"name": "РДУМ ХМАО", "full_name": "РЕГИОНАЛЬНОЕ ДУХОВНОЕ УПРАВЛЕНИЕ МУСУЛЬМАН ХМАО", "ogrn": "1038605500724", "address": "УЛ. ГАГАРИНА, Д.177", "settlement": "Г. ХАНТЫ-МАНСИЙСК", "type": "Социальная сфера", "registration_year": 1999, "liquidation_year": 2007, "status": "Ликвидирована"}}, {"type": "Feature", "geometry": {"type": "Point", "coordinates": [75.18, 61.254]}, "properties": {"name": "МЕСТНАЯ МУСУЛЬМАНСКАЯ РЕЛИГИОЗНАЯ ОРГАНИЗАЦИЯ \"МАХАЛЛЯ\"", "full_name": "МЕСТНАЯ МУСУЛЬМАНСКАЯ РЕЛИГИОЗНАЯ ОРГАНИЗАЦИЯ \"МАХАЛЛЯ\"", "ogrn": "1038605500560", "address": "УЛ. ПАРКОВАЯ, Д.5, К.Б", "settlement": "Г. ЛАНГЕПАС", "type": "Социальная сфера", "registration_year": 1999, "liquidation_year": 2013, "status": "Ликвидирована"}}, {"type": "Feature", "geometry": {"type": "Point", "coordinates": [76.569, 60.939]}, "properties": {"name": "РЕЛИГИОЗНАЯ ОРГАНИЗАЦИЯ \"УЧРЕЖДЕНИЕ ПРОФЕССИОНАЛЬНОГО РЕЛИГИОЗНОГО ОБРАЗОВАНИЯ НИЖНЕВАРТОВСКОЕ ИСЛАМСКОЕ МЕДРЕСЕ\"", "full_name": "РЕЛИГИОЗНАЯ ОРГАНИЗАЦИЯ \"УЧРЕЖДЕНИЕ ПРОФЕССИОНАЛЬНОГО РЕЛИГИОЗНОГО ОБРАЗОВАНИЯ НИЖНЕВАРТОВСКОЕ ИСЛАМСКОЕ МЕДРЕСЕ\"", "ogrn": "1048604150407", "address": "УЛ. 60 ЛЕТ ОКТЯБРЯ, Д.55, КВ.133", "settlement": "Г. НИЖНЕВАРТОВСК", "type": "Социальная сфера", "registration_year": 1999, "liquidation_year": 2004, "status": "Ликвидирована"}}, {"type": "Feature", "geometry": {"type": "Point", "coordinates": [63.584, 61.362]}, "properties": {"name": "ММРО Г. СОВЕТСКИЙ", "full_name": "МЕСТНАЯ МУСУЛЬМАНСКАЯ РЕЛИГИОЗНАЯ ОРГАНИЗАЦИЯ", "ogrn": "1038605500746", "address": "УЛ. МОЛОДЕЖНАЯ, Д.46", "settlement": "Г. СОВЕТСКИЙ", "type": "Социальная сфера", "registration_year": 1999, "liquidation_year": 2012, "status": "Ликвидирована"}}, {"type": "Feature", "geometry": {"type": "Point", "coordinates": [74.483, 62.263]}, "properties": {"name": "МЕСТНАЯ МУСУЛЬМАНСКАЯ РЕЛИГИОЗНАЯ ОРГАНИЗАЦИЯ ГОРОДА КОГАЛЫМА", "full_name": "МЕСТНАЯ МУСУЛЬМАНСКАЯ РЕЛИГИОЗНАЯ ОРГАНИЗАЦИЯ ГОРОДА КОГАЛЫМА", "ogrn": "1038605501648", "address": "УЛ. ЯНТАРНАЯ, Д.10", "settlement": "Г. КОГАЛЫМ", "type": "Социальная сфера", "registration_year": 1999, "liquidation_year": null, "status": "Действующая"}}, {"type": "Feature", "geometry": {"type": "Point", "coordinates": [71.756, 62.439]}, "properties": {"name": "МЕСТНАЯ МУСУЛЬМАНСКАЯ РЕЛИГИОЗНАЯ ОРГАНИЗАЦИЯ СЕЛЬСКОГО ПОСЕЛЕНИЯ НИЖНЕСОРТЫМСКИЙ", "full_name": "МЕСТНАЯ МУСУЛЬМАНСКАЯ РЕЛИГИОЗНАЯ ОРГАНИЗАЦИЯ СЕЛЬСКОГО ПОСЕЛЕНИЯ НИЖНЕСОРТЫМСКИЙ", "ogrn": "1038605500702", "address": "УЛ. СЕВЕРНАЯ, Д. 6А", "settlement": "П. НИЖНЕСОРТЫМСКИЙ", "type": "Социальная сфера", "registration_year": 1999, "liquidation_year": null, "status": "Действующая"}}, {"type": "Feature", "geometry": {"type": "Point", "coordinates": [73.396, 61.254]}, "properties": {"name": "ММРО \"МАХАЛЛЯ\"", "full_name": "МЕСТНАЯ МУСУЛЬМАНСКАЯ РЕЛИГИОЗНАЯ ОРГАНИЗАЦИЯ МАХАЛЛЯ", "ogrn": "1038605500735", "address": "ПР-КТ НАБЕРЕЖНЫЙ, Д.1", "settlement": "Г. СУРГУТ", "type": "Социальная сфера", "registration_year": 1999, "liquidation_year": 2007, "status": "Ликвидирована"}}, {"type": "Feature", "geometry": {"type": "Point", "coordinates": [76.12111, 61.02115]}, "properties": {"name": "МЕСТНАЯ МУСУЛЬМАНСКАЯ РЕЛИГИОЗНАЯ ОРГАНИЗАЦИЯ ГОРОДА МЕГИОНА", "full_name": "МЕСТНАЯ МУСУЛЬМАНСКАЯ РЕЛИГИОЗНАЯ ОРГАНИЗАЦИЯ ГОРОДА МЕГИОНА", "ogrn": "1038605501615", "address": null, "settlement": "Г. МЕГИОН", "type": "Социальная сфера", "registration_year": 1999, "liquidation_year": null, "status": "Действующая"}}, {"type": "Feature", "geometry": {"type": "Point", "coordinates": [76.928, 60.928]}, "properties": {"name": "МЕСТНАЯ МУСУЛЬМАНСКАЯ РЕЛИГИОЗНАЯ ОРГАНИЗАЦИЯ П.Г.Т. ИЗЛУЧИНСКА", "full_name": "МЕСТНАЯ МУСУЛЬМАНСКАЯ РЕЛИГИОЗНАЯ ОРГАНИЗАЦИЯ П.Г.Т. ИЗЛУЧИНСКА", "ogrn": "1038605500757", "address": "ПЕР. СТРОИТЕЛЕЙ, Д. 1, КВ. 80", "settlement": "ПГТ. ИЗЛУЧИНСК", "type": "Социальная сфера", "registration_year": 1999, "liquidation_year": null, "status": "Действующая"}}, {"type": "Feature", "geometry": {"type": "Point", "coordinates": [72.157, 61.628]}, "properties": {"name": "МЕСТНАЯ МУСУЛЬМАНСКАЯ РЕЛИГИОЗНАЯ ОРГАНИЗАЦИЯ ГОРОДА ЛЯНТОР", "full_name": "МЕСТНАЯ МУСУЛЬМАНСКАЯ РЕЛИГИОЗНАЯ ОРГАНИЗАЦИЯ ГОРОДА ЛЯНТОР", "ogrn": "1028600005114", "address": "УЛ РЕЧНАЯ, СТР. 5", "settlement": "Г. ЛЯНТОР", "type": "Социальная сфера", "registration_year": 1999, "liquidation_year": null, "status": "Действующая"}}, {"type": "Feature", "geometry": {"type": "Point", "coordinates": [76.57711, 60.93015]}, "properties": {"name": "МЕСТНАЯ МУСУЛЬМАНСКАЯ РЕЛИГИОЗНАЯ ОРГАНИЗАЦИЯ № 2 ГОРОДА НИЖНЕВАРТОВСКА", "full_name": "МЕСТНАЯ МУСУЛЬМАНСКАЯ РЕЛИГИОЗНАЯ ОРГАНИЗАЦИЯ № 2 ГОРОДА НИЖНЕВАРТОВСКА", "ogrn": "1038605500779", "address": "УЛ. СЕВЕРНАЯ, Д.48, КВ.202", "settlement": "Г. НИЖНЕВАРТОВСК", "type": "Социальная сфера", "registration_year": 2000, "liquidation_year": null, "status": "Действующая"}}, {"type": "Feature", "geometry": {"type": "Point", "coordinates": [76.55705, 60.94005]}, "properties": {"name": "ООО \"ХАЛАЛ\"", "full_name": "ОБЩЕСТВО С ОГРАНИЧЕННОЙ ОТВЕТСТВЕННОСТЬЮ \"ХАЛАЛ\"", "ogrn": "1108603011351", "address": "УЛ. ИНТЕРНАЦИОНАЛЬНАЯ, Д.2 Г, К.1, КВ.43", "settlement": "Г. НИЖНЕВАРТОВСК", "type": "Экономическая сфера", "registration_year": 2000, "liquidation_year": 2010, "status": "Ликвидирована"}}, {"type": "Feature", "geometry": {"type": "Point", "coordinates": [76.661, 61.943]}, "properties": {"name": "МЕСТНАЯ МУСУЛЬМАНСКАЯ РЕЛИГИОЗНАЯ ОРГАНИЗАЦИЯ МАХАЛЛЯ П.НОВОАГАНСК", "full_name": "МЕСТНАЯ МУСУЛЬМАНСКАЯ РЕЛИГИОЗНАЯ ОРГАНИЗАЦИЯ МАХАЛЛЯ П.НОВОАГАНСК", "ogrn": "1088600000125", "address": "УЛ. ЦЕНТРАЛЬНАЯ, Д.1\"А\"", "settlement": "ПГТ. НОВОАГАНСК", "type": "Социальная сфера", "registration_year": 2000, "liquidation_year": 2008, "status": "Ликвидирована"}}, {"type": "Feature", "geometry": {"type": "Point", "coordinates": [65.391, 62.144]}, "properties": {"name": "ММРО \"МАХАЛЛЯ\"", "full_name": "МЕСТНАЯ МУСУЛЬМАНСКАЯ РЕЛИГИОЗНАЯ ОРГАНИЗАЦИЯ МАХАЛЛЯ", "ogrn": "1038605500801", "address": "МКР 1-Й, Д.23, КВ.29", "settlement": "Г. НЯГАНЬ", "type": "Социальная сфера", "registration_year": 2000, "liquidation_year": 2007, "status": "Ликвидирована"}}, {"type": "Feature", "geometry": {"type": "Point", "coordinates": [76.57852, 60.94631]}, "properties": {"name": "МЕСТНАЯ МУСУЛЬМАНСКАЯ РЕЛИГИОЗНАЯ ОРГАНИЗАЦИЯ №1 ГОРОДА НИЖНЕВАРТОВСКА", "full_name": "МЕСТНАЯ МУСУЛЬМАНСКАЯ РЕЛИГИОЗНАЯ ОРГАНИЗАЦИЯ №1 ГОРОДА НИЖНЕВАРТОВСКА", "ogrn": "1038605500691", "address": "УЛ. ЛОПАРЕВА, Д.60", "settlement": "Г. НИЖНЕВАРТОВСК", "type": "Социальная сфера", "registration_year": 2000, "liquidation_year": null, "status": "Действующая"}}, {"type": "Feature", "geometry": {"type": "Point", "coordinates": [64.79, 60.13]}, "properties": {"name": "МЕСТНАЯ МУСУЛЬМАНСКАЯ РЕЛИГИОЗНАЯ ОРГАНИЗАЦИЯ ГОРОДА УРАЯ", "full_name": "МЕСТНАЯ МУСУЛЬМАНСКАЯ РЕЛИГИОЗНАЯ ОРГАНИЗАЦИЯ ГОРОДА УРАЯ", "ogrn": "1038605500780", "address": "УЛ. ЮЖНАЯ, Д.2", "settlement": "Г. УРАЙ", "type": "Социальная сфера", "registration_year": 2000, "liquidation_year": null, "status": "Действующая"}}, {"type": "Feature", "geometry": {"type": "Point", "coordinates": [66.69, 63.711]}, "properties": {"name": "МЕСТНАЯ МУСУЛЬМАНСКАЯ РЕЛИГИОЗНАЯ ОРГАНИЗАЦИЯ \"МАХАЛЛЯ\" Г. БЕЛОЯРСКИЙ РДУМ ХМАО ЦДУМ РОССИИ", "full_name": "МЕСТНАЯ МУСУЛЬМАНСКАЯ РЕЛИГИОЗНАЯ ОРГАНИЗАЦИЯ \"МАХАЛЛЯ\" Г. БЕЛОЯРСКИЙ РДУМ ХМАО ЦДУМ РОССИИ", "ogrn": "1038605501550", "address": "УЛ. МОЛОДОСТИ, Д.4, К.А, КВ.7", "settlement": "Г. БЕЛОЯРСКИЙ", "type": "Социальная сфера", "registration_year": 2001, "liquidation_year": 2008, "status": "Ликвидирована"}}, {"type": "Feature", "geometry": {"type": "Point", "coordinates": [74.0, 61.93]}, "properties": {"name": "МЕСТНАЯ МУСУЛЬМАНСКАЯ РЕЛИГИОЗНАЯ ОРГАНИЗАЦИЯ СЕЛЬСКОГО ПОСЕЛЕНИЯ УЛЬТ-ЯГУН", "full_name": "МЕСТНАЯ МУСУЛЬМАНСКАЯ РЕЛИГИОЗНАЯ ОРГАНИЗАЦИЯ СЕЛЬСКОГО ПОСЕЛЕНИЯ УЛЬТ-ЯГУН", "ogrn": "1028600004070", "address": "УЛ. ШКОЛЬНАЯ, Д. 1/1", "settlement": "П. УЛЬТ-ЯГУН", "type": "Социальная сфера", "registration_year": 2001, "liquidation_year": null, "status": "Действующая"}}, {"type": "Feature", "geometry": {"type": "Point", "coordinates": [77.467, 62.133]}, "properties": {"name": "МЕСТНАЯ МУСУЛЬМАНСКАЯ РЕЛИГИОЗНАЯ ОРГАНИЗАЦИЯ ГОРОДА РАДУЖНЫЙ", "full_name": "МЕСТНАЯ МУСУЛЬМАНСКАЯ РЕЛИГИОЗНАЯ ОРГАНИЗАЦИЯ ГОРОДА РАДУЖНЫЙ", "ogrn": "1038605500768", "address": "НАБ. ОТДЫХА, СТР. 48", "settlement": "Г. РАДУЖНЫЙ", "type": "Социальная сфера", "registration_year": 2001, "liquidation_year": null, "status": "Действующая"}}, {"type": "Feature", "geometry": {"type": "Point", "coordinates": [69.02852, 61.01031]}, "properties": {"name": "ХАНТЫ-МАНСИЙСКИЙ ОКР. БЛАГОТВОРИТЕЛЬНЫЙ ФОНД МУСУЛЬМАН \"СОЗИДАНИЕ\"", "full_name": "ХАНТЫ-МАНСИЙСКИЙ ОКРУЖНОЙ БЛАГОТВОРИТЕЛЬНЫЙ ФОНД МУСУЛЬМАН \"СОЗИДАНИЕ\"", "ogrn": "1128601002463", "address": "УЛ. МИРА, Д.13", "settlement": "Г. ХАНТЫ-МАНСИЙСК", "type": "Экономическая сфера", "registration_year": 2001, "liquidation_year": 2012, "status": "Ликвидирована"}}, {"type": "Feature", "geometry": {"type": "Point", "coordinates": [72.683, 61.15]}, "properties": {"name": "МЕСТНАЯ МУСУЛЬМАНСКАЯ РЕЛИГИОЗНАЯ ОРГАНИЗАЦИЯ ГОРОДСКОГО ПОСЕЛЕНИЯ БЕЛЫЙ ЯР СУРГУТСКОГО РАЙОНА", "full_name": "МЕСТНАЯ МУСУЛЬМАНСКАЯ РЕЛИГИОЗНАЯ ОРГАНИЗАЦИЯ ГОРОДСКОГО ПОСЕЛЕНИЯ БЕЛЫЙ ЯР СУРГУТСКОГО РАЙОНА", "ogrn": "1038605500504", "address": "УЛ. ЛЕСНАЯ, Д.3, К.Б, КВ.14", "settlement": "ПГТ. БЕЛЫЙ ЯР", "type": "Социальная сфера", "registration_year": 2001, "liquidation_year": null, "status": "Действующая"}}, {"type": "Feature", "geometry": {"type": "Point", "coordinates": [75.561, 61.741]}, "properties": {"name": "\"МАХАЛЛЯ\" Г. ПОКАЧИ РДУМ ХМАО", "full_name": "МЕСТНАЯ МУСУЛЬМАНСКАЯ РЕЛИГИОЗНАЯ ОРГАНИЗАЦИЯ \"МАХАЛЛЯ\" Г. ПОКАЧИ", "ogrn": "1038605500548", "address": "УЛ. ЛЕНИНА, Д.2, КВ.41", "settlement": "Г. ПОКАЧИ", "type": "Социальная сфера", "registration_year": 2001, "liquidation_year": 2007, "status": "Ликвидирована"}}, {"type": "Feature", "geometry": {"type": "Point", "coordinates": [73.40411, 61.24515]}, "properties": {"name": "ООО \"РАЙХАН\"", "full_name": "ОБЩЕСТВО С ОГРАНИЧЕННОЙ ОТВЕТСТВЕННОСТЬЮ \"РАЙХАН\"", "ogrn": "1048602065632", "address": "УЛ. ДЕКАБРИСТОВ, Д.1, К.А", "settlement": "Г. СУРГУТ", "type": "Экономическая сфера", "registration_year": 2004, "liquidation_year": 2012, "status": "Ликвидирована"}}, {"type": "Feature", "geometry": {"type": "Point", "coordinates": [71.48, 60.06]}, "properties": {"name": "МЕСТНАЯ МУСУЛЬМАНСКАЯ РЕЛИГИОЗНАЯ ОРГАНИЗАЦИЯ СЕЛЬСКОЕ ПОСЕЛЕНИЕ САЛЫМ", "full_name": "МЕСТНАЯ МУСУЛЬМАНСКАЯ РЕЛИГИОЗНАЯ ОРГАНИЗАЦИЯ СЕЛЬСКОЕ ПОСЕЛЕНИЕ САЛЫМ", "ogrn": "1058604155048", "address": "УЛ. РЕЧНАЯ, Д.21", "settlement": "П. САЛЫМ", "type": "Социальная сфера", "registration_year": 2005, "liquidation_year": null, "status": "Действующая"}}, {"type": "Feature", "geometry": {"type": "Point", "coordinates": [64.53, 61.89]}, "properties": {"name": "МЕСТНАЯ МУСУЛЬМАНСКАЯ РЕЛИГИОЗНАЯ ОРГАНИЗАЦИЯ ГОРОДСКОГО ПОСЕЛЕНИЯ ТАЛИНКА", "full_name": "МЕСТНАЯ МУСУЛЬМАНСКАЯ РЕЛИГИОЗНАЯ ОРГАНИЗАЦИЯ ГОРОДСКОГО ПОСЕЛЕНИЯ ТАЛИНКА", "ogrn": "1068600005539", "address": "МКР ЦЕНТРАЛЬНЫЙ, ЗД. 1А", "settlement": "ПГТ. ТАЛИНКА", "type": "Социальная сфера", "registration_year": 2006, "liquidation_year": null, "status": "Действующая"}}, {"type": "Feature", "geometry": {"type": "Point", "coordinates": [73.38405, 61.25505]}, "properties": {"name": "ООО \"ИД \"МЕДИНА\"\"", "full_name": "ОБЩЕСТВО С ОГРАНИЧЕННОЙ ОТВЕТСТВЕННОСТЬЮ \"ИЗДАТЕЛЬСКИЙ ДОМ \"МЕДИНА\"\"", "ogrn": "1075260002025", "address": "УЛ. 30 ЛЕТ ПОБЕДЫ, Д.27 А", "settlement": "Г. СУРГУТ", "type": "Коммуникационная сфера", "registration_year": 2007, "liquidation_year": 2013, "status": "Ликвидирована"}}, {"type": "Feature", "geometry": {"type": "Point", "coordinates": [72.61211, 61.08815]}, "properties": {"name": "БЛАГОТВОРИТЕЛЬНЫЙ ФОНД МУСУЛЬМАН НЕФТЕЮГАНСКОГО РЕГИОНА", "full_name": "БЛАГОТВОРИТЕЛЬНЫЙ ФОНД МУСУЛЬМАН НЕФТЕЮГАНСКОГО РЕГИОНА", "ogrn": "1078600002766", "address": "Д.1, КВ.2", "settlement": "Г. НЕФТЕЮГАНСК", "type": "Экономическая сфера", "registration_year": 2007, "liquidation_year": 2011, "status": "Ликвидирована"}}, {"type": "Feature", "geometry": {"type": "Point", "coordinates": [69.01692, 60.99118]}, "properties": {"name": "ХМГОБФ ПО ССМ \"ДОВЕРИЕ\"", "full_name": "ХАНТЫ-МАНСИЙСКИЙ ГОРОДСКОЙ ОБЩЕСТВЕННЫЙ БЛАГОТВОРИТЕЛЬНЫЙ ФОНД ПО СТРОИТЕЛЬСТВУ СОБОРНОЙ МЕЧЕТИ \"ДОВЕРИЕ\"", "ogrn": "1078600002018", "address": "УЛ. КРАСНОАРМЕЙСКАЯ, Д.27, КВ.36", "settlement": "Г. ХАНТЫ-МАНСИЙСК", "type": "Экономическая сфера", "registration_year": 2007, "liquidation_year": null, "status": "Действующая"}}, {"type": "Feature", "geometry": {"type": "Point", "coordinates": [73.40552, 61.26131]}, "properties": {"name": "ЦЕНТРАЛИЗОВАННАЯ РЕЛИГИОЗНАЯ ОРГАНИЗАЦИЯ ДУХОВНОЕ УПРАВЛЕНИЕ МУСУЛЬМАН ХАНТЫ-МАНСИЙСКОГО АВТОНОМНОГО ОКРУГА-ЮГРЫ", "full_name": "ЦЕНТРАЛИЗОВАННАЯ РЕЛИГИОЗНАЯ ОРГАНИЗАЦИЯ ДУХОВНОЕ УПРАВЛЕНИЕ МУСУЛЬМАН ХАНТЫ-МАНСИЙСКОГО АВТОНОМНОГО ОКРУГА-ЮГРЫ", "ogrn": "1088600000829", "address": "ПР-КТ НАБЕРЕЖНЫЙ, Д. 1, К. 3", "settlement": "Г. СУРГУТ", "type": "Социальная сфера", "registration_year": 2008, "liquidation_year": null, "status": "Действующая"}}, {"type": "Feature", "geometry": {"type": "Point", "coordinates": [76.10105, 61.03105]}, "properties": {"name": "МЕСТНАЯ МУСУЛЬМАНСКАЯ РЕЛИГИОЗНАЯ ОРГАНИЗАЦИЯ № 2 ГОРОДА МЕГИОНА", "full_name": "МЕСТНАЯ МУСУЛЬМАНСКАЯ РЕЛИГИОЗНАЯ ОРГАНИЗАЦИЯ № 2 ГОРОДА МЕГИОНА", "ogrn": "1098600000620", "address": "УЛ. НЕФТЯНИКОВ, Д.14, КВ.130", "settlement": "Г. МЕГИОН", "type": "Социальная сфера", "registration_year": 2009, "liquidation_year": null, "status": "Действующая"}}, {"type": "Feature", "geometry": {"type": "Point", "coordinates": [73.39392, 61.24218]}, "properties": {"name": "МЕСТНАЯ МУСУЛЬМАНСКАЯ РЕЛИГИОЗНАЯ ОРГАНИЗАЦИЯ ГОРОДА СУРГУТА", "full_name": "МЕСТНАЯ МУСУЛЬМАНСКАЯ РЕЛИГИОЗНАЯ ОРГАНИЗАЦИЯ ГОРОДА СУРГУТА", "ogrn": "1098600000520", "address": "ПР-КТ НАБЕРЕЖНЫЙ, Д. 1, К. 3", "settlement": "Г. СУРГУТ", "type": "Социальная сфера", "registration_year": 2009, "liquidation_year": null, "status": "Действующая"}}, {"type": "Feature", "geometry": {"type": "Point", "coordinates": [66.69811, 63.70215]}, "properties": {"name": "МЕСТНАЯ МУСУЛЬМАНСКАЯ РЕЛИГИОЗНАЯ ОРГАНИЗАЦИЯ ГОРОДА БЕЛОЯРСКИЙ", "full_name": "МЕСТНАЯ МУСУЛЬМАНСКАЯ РЕЛИГИОЗНАЯ ОРГАНИЗАЦИЯ ГОРОДА БЕЛОЯРСКИЙ", "ogrn": "1108600000629", "address": "МКР 5, Д. 33", "settlement": "Г. БЕЛОЯРСКИЙ", "type": "Социальная сфера", "registration_year": 2010, "liquidation_year": null, "status": "Действующая"}}, {"type": "Feature", "geometry": {"type": "Point", "coordinates": [69.9, 60.066]}, "properties": {"name": "МЕСТНАЯ МУСУЛЬМАНСКАЯ РЕЛИГИОЗНАЯ ОРГАНИЗАЦИЯ СЕЛЬСКОГО ПОСЕЛЕНИЯ ГОРНОПРАВДИНСКА", "full_name": "МЕСТНАЯ МУСУЛЬМАНСКАЯ РЕЛИГИОЗНАЯ ОРГАНИЗАЦИЯ СЕЛЬСКОГО ПОСЕЛЕНИЯ ГОРНОПРАВДИНСКА", "ogrn": "1108600001069", "address": "УЛ. ТАЕЖНАЯ, Д.6, КВ.12", "settlement": "П. ГОРНОПРАВДИНСК", "type": "Социальная сфера", "registration_year": 2010, "liquidation_year": null, "status": "Действующая"}}, {"type": "Feature", "geometry": {"type": "Point", "coordinates": [73.38611, 61.61715]}, "properties": {"name": "МЕСТНАЯ МУСУЛЬМАНСКАЯ РЕЛИГИОЗНАЯ ОРГАНИЗАЦИЯ ГОРОДСКОГО ПОСЕЛЕНИЯ ФЕДОРОВСКИЙ", "full_name": "МЕСТНАЯ МУСУЛЬМАНСКАЯ РЕЛИГИОЗНАЯ ОРГАНИЗАЦИЯ ГОРОДСКОГО ПОСЕЛЕНИЯ ФЕДОРОВСКИЙ", "ogrn": "1108600001025", "address": "УЛ. ЛЕНИНА, Д.14А, КВ.275", "settlement": "ПГТ. ФЕДОРОВСКИЙ", "type": "Социальная сфера", "registration_year": 2010, "liquidation_year": null, "status": "Действующая"}}, {"type": "Feature", "geometry": {"type": "Point", "coordinates": [76.66911, 61.93415]}, "properties": {"name": "МЕСТНАЯ МУСУЛЬМАНСКАЯ РЕЛИГИОЗНАЯ ОРГАНИЗАЦИЯ ГОРОДСКОГО ПОСЕЛЕНИЯ НОВОАГАНСК", "full_name": "МЕСТНАЯ МУСУЛЬМАНСКАЯ РЕЛИГИОЗНАЯ ОРГАНИЗАЦИЯ ГОРОДСКОГО ПОСЕЛЕНИЯ НОВОАГАНСК", "ogrn": "1108600000805", "address": "УЛ. ГЕОФИЗИКОВ, Д.3-А", "settlement": "ПГТ. НОВОАГАНСК", "type": "Социальная сфера", "registration_year": 2010, "liquidation_year": null, "status": "Действующая"}}, {"type": "Feature", "geometry": {"type": "Point", "coordinates": [73.38955, 61.26412]}, "properties": {"name": "ООО СК \"ИМАН\"", "full_name": "ОБЩЕСТВО С ОГРАНИЧЕННОЙ ОТВЕТСТВЕННОСТЬЮ СТРОИТЕЛЬНАЯ КОМПАНИЯ \"ИМАН\"", "ogrn": "1118602002441", "address": "УЛ. УНИВЕРСИТЕТСКАЯ, Д. 29, ЦОКОЛЬНЫЙ ЭТАЖ", "settlement": "Г. СУРГУТ", "type": "Экономическая сфера", "registration_year": 2011, "liquidation_year": null, "status": "Действующая"}}, {"type": "Feature", "geometry": {"type": "Point", "coordinates": [75.18811, 61.24515]}, "properties": {"name": "МЕСТНАЯ МУСУЛЬМАНСКАЯ РЕЛИГИОЗНАЯ ОРГАНИЗАЦИЯ ГОРОДА ЛАНГЕПАСА", "full_name": "МЕСТНАЯ МУСУЛЬМАНСКАЯ РЕЛИГИОЗНАЯ ОРГАНИЗАЦИЯ ГОРОДА ЛАНГЕПАСА", "ogrn": "1118600000573", "address": "УЛ ПАРКОВАЯ, ЗД. 18", "settlement": "Г. ЛАНГЕПАС", "type": "Социальная сфера", "registration_year": 2011, "liquidation_year": null, "status": "Действующая"}}, {"type": "Feature", "geometry": {"type": "Point", "coordinates": [65.05, 63.936]}, "properties": {"name": "МЕСТНАЯ РЕЛИГИОЗНАЯ ОРГАНИЗАЦИЯ МУСУЛЬМАН БЕРЕЗОВСКОГО РАЙОНА ДУХОВНОГО УПРАВЛЕНИЯ МУСУЛЬМАН АЗИАТСКОЙ ЧАСТИ РОССИИ", "full_name": "МЕСТНАЯ РЕЛИГИОЗНАЯ ОРГАНИЗАЦИЯ МУСУЛЬМАН БЕРЕЗОВСКОГО РАЙОНА ДУХОВНОГО УПРАВЛЕНИЯ МУСУЛЬМАН АЗИАТСКОЙ ЧАСТИ РОССИИ", "ogrn": "1128624000174", "address": "УЛ. ЛЕНИНА, Д.27", "settlement": "ПГТ. БЕРЕЗОВО", "type": "Социальная сфера", "registration_year": 2012, "liquidation_year": 2021, "status": "Ликвидирована"}}, {"type": "Feature", "geometry": {"type": "Point", "coordinates": [75.56911, 61.73215]}, "properties": {"name": "МЕСТНАЯ МУСУЛЬМАНСКАЯ РЕЛИГИОЗНАЯ ОРГАНИЗАЦИЯ ГОРОДА ПОКАЧИ СОБОРНАЯ МЕЧЕТЬ", "full_name": "МЕСТНАЯ МУСУЛЬМАНСКАЯ РЕЛИГИОЗНАЯ ОРГАНИЗАЦИЯ ГОРОДА ПОКАЧИ СОБОРНАЯ МЕЧЕТЬ", "ogrn": "1128624000702", "address": "УЛ. МОЛОДЕЖНАЯ, Д.14", "settlement": "Г. ПОКАЧИ", "type": "Социальная сфера", "registration_year": 2012, "liquidation_year": null, "status": "Действующая"}}, {"type": "Feature", "geometry": {"type": "Point", "coordinates": [72.19811, 61.47115]}, "properties": {"name": "МЕСТНАЯ МУСУЛЬМАНСКАЯ РЕЛИГИОЗНАЯ ОРГАНИЗАЦИЯ ГП. ПОЙКОВСКИЙ", "full_name": "МЕСТНАЯ МУСУЛЬМАНСКАЯ РЕЛИГИОЗНАЯ ОРГАНИЗАЦИЯ ГП. ПОЙКОВСКИЙ", "ogrn": "1148600000878", "address": "МКР. Коржавино, Д. 9-А", "settlement": "ПГТ. ПОЙКОВСКИЙ", "type": "Социальная сфера", "registration_year": 2014, "liquidation_year": null, "status": "Действующая"}}, {"type": "Feature", "geometry": {"type": "Point", "coordinates": [65.39911, 62.13515]}, "properties": {"name": "МЕСТНАЯ МУСУЛЬМАНСКАЯ РЕЛИГИОЗНАЯ ОРГАНИЗАЦИЯ ГОРОДА НЯГАНЬ", "full_name": "МЕСТНАЯ МУСУЛЬМАНСКАЯ РЕЛИГИОЗНАЯ ОРГАНИЗАЦИЯ ГОРОДА НЯГАНЬ", "ogrn": "1148600000779", "address": "УЛ. ЛЕНИНА, Д. 41", "settlement": "Г. НЯГАНЬ", "type": "Социальная сфера", "registration_year": 2014, "liquidation_year": null, "status": "Действующая"}}, {"type": "Feature", "geometry": {"type": "Point", "coordinates": [63.34411, 61.30315]}, "properties": {"name": "ФОНД \"ЕДИНСТВО\"", "full_name": "ЮГОРСКИЙ ГОРОДСКОЙ ОБЩЕСТВЕННЫЙ БЛАГОТВОРИТЕЛЬНЫЙ ФОНД ПО СТРОИТЕЛЬСТВУ МЕЧЕТИ \"ЕДИНСТВО\"", "ogrn": "1158600000888", "address": "УЛ. ПОПОВА, Д. 81", "settlement": "Г. ЮГОРСК", "type": "Экономическая сфера", "registration_year": 2015, "liquidation_year": 2019, "status": "Ликвидирована"}}, {"type": "Feature", "geometry": {"type": "Point", "coordinates": [73.40759, 61.25089]}, "properties": {"name": "ООО \"ХАЛЯЛЬ-ЦЕНТР\"", "full_name": "ОБЩЕСТВО С ОГРАНИЧЕННОЙ ОТВЕТСТВЕННОСТЬЮ \"ХАЛЯЛЬ-ЦЕНТР\"", "ogrn": "1158602000193", "address": "ПР-КТ НАБЕРЕЖНЫЙ, Д. 1, СТР. 1", "settlement": "Г. СУРГУТ", "type": "Экономическая сфера", "registration_year": 2015, "liquidation_year": null, "status": "Действующая"}}, {"type": "Feature", "geometry": {"type": "Point", "coordinates": [65.633, 62.94]}, "properties": {"name": "МЕСТНАЯ МУСУЛЬМАНСКАЯ РЕЛИГИОЗНАЯ ОРГАНИЗАЦИЯ ГОРОДСКОГО ПОСЕЛЕНИЯ ПРИОБЬЕ", "full_name": "МЕСТНАЯ МУСУЛЬМАНСКАЯ РЕЛИГИОЗНАЯ ОРГАНИЗАЦИЯ ГОРОДСКОГО ПОСЕЛЕНИЯ ПРИОБЬЕ", "ogrn": "1168600051278", "address": "УЛ. СТРОИТЕЛЕЙ, Д. 47, ПОМЕЩ. 1", "settlement": "ПГТ. ПРИОБЬЕ", "type": "Социальная сфера", "registration_year": 2016, "liquidation_year": null, "status": "Действующая"}}, {"type": "Feature", "geometry": {"type": "Point", "coordinates": [74.05, 60.508]}, "properties": {"name": "МЕСТНАЯ МУСУЛЬМАНСКАЯ РЕЛИГИОЗНАЯ ОРГАНИЗАЦИЯ СЕЛЬСКОГО ПОСЕЛЕНИЯ УГУТ", "full_name": "МЕСТНАЯ МУСУЛЬМАНСКАЯ РЕЛИГИОЗНАЯ ОРГАНИЗАЦИЯ СЕЛЬСКОГО ПОСЕЛЕНИЯ УГУТ", "ogrn": "1168600050486", "address": "УЛ. ЛЬВОВСКАЯ, Д. 21", "settlement": "С. УГУТ", "type": "Социальная сфера", "registration_year": 2016, "liquidation_year": null, "status": "Действующая"}}, {"type": "Feature", "geometry": {"type": "Point", "coordinates": [65.37905, 62.14505]}, "properties": {"name": "БЛАГОТВОРИТЕЛЬНЫЙ ФОНД СОДЕЙСТВИЯ СТРОИТЕЛЬСТВУ МЕЧЕТИ \"САЛЯМ\" (МИР)", "full_name": "БЛАГОТВОРИТЕЛЬНЫЙ ФОНД СОДЕЙСТВИЯ СТРОИТЕЛЬСТВУ МЕЧЕТИ \"САЛЯМ\" (МИР)", "ogrn": "1188600001985", "address": "УЛ. ЛЕСНИКОВ, Д. 12, К. А", "settlement": "Г. НЯГАНЬ", "type": "Экономическая сфера", "registration_year": 2018, "liquidation_year": null, "status": "Действующая"}}, {"type": "Feature", "geometry": {"type": "Point", "coordinates": [69.01255, 61.01312]}, "properties": {"name": "ООО\"ХАЛЯЛЬ ХМ\"", "full_name": "ОБЩЕСТВО С ОГРАНИЧЕННОЙ ОТВЕТСТВЕННОСТЬЮ \"ХАЛЯЛЬ ХМ\"", "ogrn": "1198617012494", "address": "УЛ. ЮГОРСКАЯ, Д. 14, К. 4, КВ. 90", "settlement": "Г. ХАНТЫ-МАНСИЙСК", "type": "Экономическая сфера", "registration_year": 2019, "liquidation_year": null, "status": "Действующая"}}, {"type": "Feature", "geometry": {"type": "Point", "coordinates": [63.69, 61.842]}, "properties": {"name": "МЕСТНАЯ МУСУЛЬМАНСКАЯ РЕЛИГИОЗНАЯ ОРГАНИЗАЦИЯ ГОРОДСКОГО ПОСЕЛЕНИЯ ПИОНЕРСКИЙ", "full_name": "МЕСТНАЯ МУСУЛЬМАНСКАЯ РЕЛИГИОЗНАЯ ОРГАНИЗАЦИЯ ГОРОДСКОГО ПОСЕЛЕНИЯ ПИОНЕРСКИЙ", "ogrn": "1228600003092", "address": "УЛ КИРОВА, Д. 17/1", "settlement": "ПГТ. ПИОНЕРСКИЙ", "type": "Социальная сфера", "registration_year": 2022, "liquidation_year": null, "status": "Действующая"}}]}